; Ander Reizabal 
; 2022-04-03
; DaltonLab, Eugene, US
; Square scaffold 20x20_0.5 um interspace

; Main Parameters
G21 ; (Set Units to Millimeters)

; Printhead begining possition
;G28	; (Move to Origin - Home)
G90 
G1 Z10 F3000 ; save Z height
G1 Y100 F3000 ; (avoid light collision)
G1 X23 F3000; (nozzle left back corner)
G1 Z20 
PAUSE ; clean the nozzle to remove all the visible solution - then write 'restart' 



; Set values
G1 Z1.5 ; NTCD (mm)

PAUSE ; whait the jet top be generated - write 'restart' to continue the print


G1 F2000 ; set feedrate (mm/min)
G91 ; relative positioning

; Jet loading and stabilization
G1 Y-45 
G1 Y45
G1 Y-45
G1 X1
G1 Y45
G1 X1
G1 Y-45
G1 X1
G1 Y45
G1 X1
G1 Y-45
G1 X1
G1 Y45
G1 X1
G1 Y-45
G1 X1
G1 Y45
G1 X1
G1 Y-42

; GLASS SLIDE transition
G1 X5


;Start Print
G1 X30.00000 Y0.00000
G4 P0 ; pause after line 
G1 F2000 ; loop speed
G1 X0.41996 Y-0.81364
G1 X0.83302 Y-0.38006
G1 X0.88977 Y0.21608
G1 X0.56592 Y0.71980
G1 X0.00000 Y0.91563
G1 X-0.56592 Y0.71980
G1 X-0.88977 Y0.21608
G1 X-0.83302 Y-0.38006
G1 X-0.41996 Y-0.81364
G1 X0.00000 Y0.00000
G4 P0 ; pause before line 
G1 F2000 ;  MEWing speed 
G1 X-30.00000 Y0.00000
G4 P0 ; pause after line 
G1 F2000 ; loop speed
G1 X-0.41996 Y-0.81364
G1 X-0.83302 Y-0.38006
G1 X-0.88977 Y0.21608
G1 X-0.56592 Y0.71980
G1 X0.00000 Y0.91563
G1 X0.56592 Y0.71980
G1 X0.88977 Y0.21608
G1 X0.83302 Y-0.38006
G1 X0.41996 Y-0.81364
G1 X0.00000 Y0.00000
G4 P0 ; pause before line 
G1 F2000 ; MEWing speed 
G1 X30.00000 Y0.00000
G4 P0 ; pause after line 
G1 F2000 ; loop speed
G1 X0.41996 Y-0.81364
G1 X0.83302 Y-0.38006
G1 X0.88977 Y0.21608
G1 X0.56592 Y0.71980
G1 X0.00000 Y0.91563
G1 X-0.56592 Y0.71980
G1 X-0.88977 Y0.21608
G1 X-0.83302 Y-0.38006
G1 X-0.41996 Y-0.81364
G1 X0.00000 Y0.00000
G4 P0 ; pause before line 
G1 F2000 ;  MEWing speed 
G1 X-30.00000 Y0.00000
G4 P0 ; pause after line 
G1 F2000 ; loop speed
G1 X-0.41996 Y-0.81364
G1 X-0.83302 Y-0.38006
G1 X-0.88977 Y0.21608
G1 X-0.56592 Y0.71980
G1 X0.00000 Y0.91563
G1 X0.56592 Y0.71980
G1 X0.88977 Y0.21608
G1 X0.83302 Y-0.38006
G1 X0.41996 Y-0.81364
G1 X0.00000 Y0.00000
G4 P0 ; pause before line 
G1 F2000 ; MEWing speed 
G1 X30.00000 Y0.00000
G4 P0 ; pause after line 
G1 F2000 ; loop speed
G1 X0.41996 Y-0.81364
G1 X0.83302 Y-0.38006
G1 X0.88977 Y0.21608
G1 X0.56592 Y0.71980
G1 X0.00000 Y0.91563
G1 X-0.56592 Y0.71980
G1 X-0.88977 Y0.21608
G1 X-0.83302 Y-0.38006
G1 X-0.41996 Y-0.81364
G1 X0.00000 Y0.00000
G4 P0 ; pause before line 
G1 F2000 ;  MEWing speed 
G1 X-30.00000 Y0.00000
G4 P0 ; pause after line 
G1 F2000 ; loop speed
G1 X-0.41996 Y-0.81364
G1 X-0.83302 Y-0.38006
G1 X-0.88977 Y0.21608
G1 X-0.56592 Y0.71980
G1 X0.00000 Y0.91563
G1 X0.56592 Y0.71980
G1 X0.88977 Y0.21608
G1 X0.83302 Y-0.38006
G1 X0.41996 Y-0.81364
G1 X0.00000 Y0.00000
G4 P0 ; pause before line 
G1 F2000 ; MEWing speed 
G1 X30.00000 Y0.00000
G4 P0 ; pause after line 
G1 F2000 ; loop speed
G1 X0.41996 Y-0.81364
G1 X0.83302 Y-0.38006
G1 X0.88977 Y0.21608
G1 X0.56592 Y0.71980
G1 X0.00000 Y0.91563
G1 X-0.56592 Y0.71980
G1 X-0.88977 Y0.21608
G1 X-0.83302 Y-0.38006
G1 X-0.41996 Y-0.81364
G1 X0.00000 Y0.00000
G4 P0 ; pause before line 
G1 F2000 ;  MEWing speed 
G1 X-30.00000 Y0.00000
G4 P0 ; pause after line 
G1 F2000 ; loop speed
G1 X-0.41996 Y-0.81364
G1 X-0.83302 Y-0.38006
G1 X-0.88977 Y0.21608
G1 X-0.56592 Y0.71980
G1 X0.00000 Y0.91563
G1 X0.56592 Y0.71980
G1 X0.88977 Y0.21608
G1 X0.83302 Y-0.38006
G1 X0.41996 Y-0.81364
G1 X0.00000 Y0.00000
G4 P0 ; pause before line 
G1 F2000 ; MEWing speed 
G1 X30.00000 Y0.00000
G4 P0 ; pause after line 
G1 F2000 ; loop speed
G1 X0.41996 Y-0.81364
G1 X0.83302 Y-0.38006
G1 X0.88977 Y0.21608
G1 X0.56592 Y0.71980
G1 X0.00000 Y0.91563
G1 X-0.56592 Y0.71980
G1 X-0.88977 Y0.21608
G1 X-0.83302 Y-0.38006
G1 X-0.41996 Y-0.81364
G1 X0.00000 Y0.00000
G4 P0 ; pause before line 
G1 F2000 ;  MEWing speed 
G1 X-30.00000 Y0.00000
G4 P0 ; pause after line 
G1 F2000 ; loop speed
G1 X-0.41996 Y-0.81364
G1 X-0.83302 Y-0.38006
G1 X-0.88977 Y0.21608
G1 X-0.56592 Y0.71980
G1 X0.00000 Y0.91563
G1 X0.56592 Y0.71980
G1 X0.88977 Y0.21608
G1 X0.83302 Y-0.38006
G1 X0.41996 Y-0.81364
G1 X0.00000 Y0.00000
G4 P0 ; pause before line 
G1 F2000 ; MEWing speed 
G1 X30.00000 Y0.00000
G4 P0 ; pause after line 
G1 F2000 ; loop speed
G1 X0.41996 Y-0.81364
G1 X0.83302 Y-0.38006
G1 X0.88977 Y0.21608
G1 X0.56592 Y0.71980
G1 X0.00000 Y0.91563
G1 X-0.56592 Y0.71980
G1 X-0.88977 Y0.21608
G1 X-0.83302 Y-0.38006
G1 X-0.41996 Y-0.81364
G1 X0.00000 Y0.00000
G4 P0 ; pause before line 
G1 F2000 ;  MEWing speed 
G1 X-30.00000 Y0.00000
G4 P0 ; pause after line 
G1 F2000 ; loop speed
G1 X-0.41996 Y-0.81364
G1 X-0.83302 Y-0.38006
G1 X-0.88977 Y0.21608
G1 X-0.56592 Y0.71980
G1 X0.00000 Y0.91563
G1 X0.56592 Y0.71980
G1 X0.88977 Y0.21608
G1 X0.83302 Y-0.38006
G1 X0.41996 Y-0.81364
G1 X0.00000 Y0.00000
G4 P0 ; pause before line 
G1 F2000 ; MEWing speed 
G1 X30.00000 Y0.00000
G4 P0 ; pause after line 
G1 F2000 ; loop speed
G1 X0.41996 Y-0.81364
G1 X0.83302 Y-0.38006
G1 X0.88977 Y0.21608
G1 X0.56592 Y0.71980
G1 X0.00000 Y0.91563
G1 X-0.56592 Y0.71980
G1 X-0.88977 Y0.21608
G1 X-0.83302 Y-0.38006
G1 X-0.41996 Y-0.81364
G1 X0.00000 Y0.00000
G4 P0 ; pause before line 
G1 F2000 ;  MEWing speed 
G1 X-30.00000 Y0.00000
G4 P0 ; pause after line 
G1 F2000 ; loop speed
G1 X-0.41996 Y-0.81364
G1 X-0.83302 Y-0.38006
G1 X-0.88977 Y0.21608
G1 X-0.56592 Y0.71980
G1 X0.00000 Y0.91563
G1 X0.56592 Y0.71980
G1 X0.88977 Y0.21608
G1 X0.83302 Y-0.38006
G1 X0.41996 Y-0.81364
G1 X0.00000 Y0.00000
G4 P0 ; pause before line 
G1 F2000 ; MEWing speed 
G1 X30.00000 Y0.00000
G4 P0 ; pause after line 
G1 F2000 ; loop speed
G1 X0.41996 Y-0.81364
G1 X0.83302 Y-0.38006
G1 X0.88977 Y0.21608
G1 X0.56592 Y0.71980
G1 X0.00000 Y0.91563
G1 X-0.56592 Y0.71980
G1 X-0.88977 Y0.21608
G1 X-0.83302 Y-0.38006
G1 X-0.41996 Y-0.81364
G1 X0.00000 Y0.00000
G4 P0 ; pause before line 
G1 F2000 ;  MEWing speed 
G1 X-30.00000 Y0.00000
G4 P0 ; pause after line 
G1 F2000 ; loop speed
G1 X-0.41996 Y-0.81364
G1 X-0.83302 Y-0.38006
G1 X-0.88977 Y0.21608
G1 X-0.56592 Y0.71980
G1 X0.00000 Y0.91563
G1 X0.56592 Y0.71980
G1 X0.88977 Y0.21608
G1 X0.83302 Y-0.38006
G1 X0.41996 Y-0.81364
G1 X0.00000 Y0.00000
G4 P0 ; pause before line 
G1 F2000 ; MEWing speed 
G1 X30.00000 Y0.00000
G4 P0 ; pause after line 
G1 F2000 ; loop speed
G1 X0.41996 Y-0.81364
G1 X0.83302 Y-0.38006
G1 X0.88977 Y0.21608
G1 X0.56592 Y0.71980
G1 X0.00000 Y0.91563
G1 X-0.56592 Y0.71980
G1 X-0.88977 Y0.21608
G1 X-0.83302 Y-0.38006
G1 X-0.41996 Y-0.81364
G1 X0.00000 Y0.00000
G4 P0 ; pause before line 
G1 F2000 ;  MEWing speed 
G1 X-30.00000 Y0.00000
G4 P0 ; pause after line 
G1 F2000 ; loop speed
G1 X-0.41996 Y-0.81364
G1 X-0.83302 Y-0.38006
G1 X-0.88977 Y0.21608
G1 X-0.56592 Y0.71980
G1 X0.00000 Y0.91563
G1 X0.56592 Y0.71980
G1 X0.88977 Y0.21608
G1 X0.83302 Y-0.38006
G1 X0.41996 Y-0.81364
G1 X0.00000 Y0.00000
G4 P0 ; pause before line 
G1 F2000 ; MEWing speed 
G1 X30.00000 Y0.00000
G4 P0 ; pause after line 
G1 F2000 ; loop speed
G1 X0.41996 Y-0.81364
G1 X0.83302 Y-0.38006
G1 X0.88977 Y0.21608
G1 X0.56592 Y0.71980
G1 X0.00000 Y0.91563
G1 X-0.56592 Y0.71980
G1 X-0.88977 Y0.21608
G1 X-0.83302 Y-0.38006
G1 X-0.41996 Y-0.81364
G1 X0.00000 Y0.00000
G4 P0 ; pause before line 
G1 F2000 ;  MEWing speed 
G1 X-30.00000 Y0.00000
G4 P0 ; pause after line 
G1 F2000 ; loop speed
G1 X-0.41996 Y-0.81364
G1 X-0.83302 Y-0.38006
G1 X-0.88977 Y0.21608
G1 X-0.56592 Y0.71980
G1 X0.00000 Y0.91563
G1 X0.56592 Y0.71980
G1 X0.88977 Y0.21608
G1 X0.83302 Y-0.38006
G1 X0.41996 Y-0.81364
G1 X0.00000 Y0.00000
G4 P0 ; pause before line 
G1 F2000 ; MEWing speed 
G1 X30.00000 Y0.00000
G4 P0 ; pause after line 
G1 F2000 ; loop speed
G1 X0.41996 Y-0.81364
G1 X0.83302 Y-0.38006
G1 X0.88977 Y0.21608
G1 X0.56592 Y0.71980
G1 X0.00000 Y0.91563
G1 X-0.56592 Y0.71980
G1 X-0.88977 Y0.21608
G1 X-0.83302 Y-0.38006
G1 X-0.41996 Y-0.81364
G1 X0.00000 Y0.00000
G4 P0 ; pause before line 
G1 F2000 ;  MEWing speed 
G1 X-30.00000 Y0.00000
G4 P0 ; pause after line 
G1 F2000 ; loop speed
G1 X-0.41996 Y-0.81364
G1 X-0.83302 Y-0.38006
G1 X-0.88977 Y0.21608
G1 X-0.56592 Y0.71980
G1 X0.00000 Y0.91563
G1 X0.56592 Y0.71980
G1 X0.88977 Y0.21608
G1 X0.83302 Y-0.38006
G1 X0.41996 Y-0.81364
G1 X0.00000 Y0.00000
G4 P0 ; pause before line 
G1 F2000 ; MEWing speed 
G1 X30.00000 Y0.00000
G4 P0 ; pause after line 
G1 F2000 ; loop speed
G1 X0.41996 Y-0.81364
G1 X0.83302 Y-0.38006
G1 X0.88977 Y0.21608
G1 X0.56592 Y0.71980
G1 X0.00000 Y0.91563
G1 X-0.56592 Y0.71980
G1 X-0.88977 Y0.21608
G1 X-0.83302 Y-0.38006
G1 X-0.41996 Y-0.81364
G1 X0.00000 Y0.00000
G4 P0 ; pause before line 
G1 F2000 ;  MEWing speed 
G1 X-30.00000 Y0.00000
G4 P0 ; pause after line 
G1 F2000 ; loop speed
G1 X-0.41996 Y-0.81364
G1 X-0.83302 Y-0.38006
G1 X-0.88977 Y0.21608
G1 X-0.56592 Y0.71980
G1 X0.00000 Y0.91563
G1 X0.56592 Y0.71980
G1 X0.88977 Y0.21608
G1 X0.83302 Y-0.38006
G1 X0.41996 Y-0.81364
G1 X0.00000 Y0.00000
G4 P0 ; pause before line 
G1 F2000 ; MEWing speed 
G1 X30.00000 Y0.00000
G4 P0 ; pause after line 
G1 F2000 ; loop speed
G1 X0.41996 Y-0.81364
G1 X0.83302 Y-0.38006
G1 X0.88977 Y0.21608
G1 X0.56592 Y0.71980
G1 X0.00000 Y0.91563
G1 X-0.56592 Y0.71980
G1 X-0.88977 Y0.21608
G1 X-0.83302 Y-0.38006
G1 X-0.41996 Y-0.81364
G1 X0.00000 Y0.00000
G4 P0 ; pause before line 
G1 F2000 ;  MEWing speed 
G1 X-30.00000 Y0.00000
G4 P0 ; pause after line 
G1 F2000 ; loop speed
G1 X-0.41996 Y-0.81364
G1 X-0.83302 Y-0.38006
G1 X-0.88977 Y0.21608
G1 X-0.56592 Y0.71980
G1 X0.00000 Y0.91563
G1 X0.56592 Y0.71980
G1 X0.88977 Y0.21608
G1 X0.83302 Y-0.38006
G1 X0.41996 Y-0.81364
G1 X0.00000 Y0.00000
G4 P0 ; pause before line 
G1 F2000 ; MEWing speed 
G1 X30.00000 Y0.00000
G4 P0 ; pause after line 
G1 F2000 ; loop speed
G1 X0.41996 Y-0.81364
G1 X0.83302 Y-0.38006
G1 X0.88977 Y0.21608
G1 X0.56592 Y0.71980
G1 X0.00000 Y0.91563
G1 X-0.56592 Y0.71980
G1 X-0.88977 Y0.21608
G1 X-0.83302 Y-0.38006
G1 X-0.41996 Y-0.81364
G1 X0.00000 Y0.00000
G4 P0 ; pause before line 
G1 F2000 ;  MEWing speed 
G1 X-30.00000 Y0.00000
G4 P0 ; pause after line 
G1 F2000 ; loop speed
G1 X-0.41996 Y-0.81364
G1 X-0.83302 Y-0.38006
G1 X-0.88977 Y0.21608
G1 X-0.56592 Y0.71980
G1 X0.00000 Y0.91563
G1 X0.56592 Y0.71980
G1 X0.88977 Y0.21608
G1 X0.83302 Y-0.38006
G1 X0.41996 Y-0.81364
G1 X0.00000 Y0.00000
G4 P0 ; pause before line 
G1 F2000 ; MEWing speed 
G1 X30.00000 Y0.00000
G4 P0 ; pause after line 
G1 F2000 ; loop speed
G1 X0.41996 Y-0.81364
G1 X0.83302 Y-0.38006
G1 X0.88977 Y0.21608
G1 X0.56592 Y0.71980
G1 X0.00000 Y0.91563
G1 X-0.56592 Y0.71980
G1 X-0.88977 Y0.21608
G1 X-0.83302 Y-0.38006
G1 X-0.41996 Y-0.81364
G1 X0.00000 Y0.00000
G4 P0 ; pause before line 
G1 F2000 ;  MEWing speed 
G1 X-30.00000 Y0.00000
G4 P0 ; pause after line 
G1 F2000 ; loop speed
G1 X-0.41996 Y-0.81364
G1 X-0.83302 Y-0.38006
G1 X-0.88977 Y0.21608
G1 X-0.56592 Y0.71980
G1 X0.00000 Y0.91563
G1 X0.56592 Y0.71980
G1 X0.88977 Y0.21608
G1 X0.83302 Y-0.38006
G1 X0.41996 Y-0.81364
G1 X0.00000 Y0.00000
G4 P0 ; pause before line 
G1 F2000 ; MEWing speed 
G1 X30.00000 Y0.00000
G4 P0 ; pause after line 
G1 F2000 ; loop speed
G1 X0.41996 Y-0.81364
G1 X0.83302 Y-0.38006
G1 X0.88977 Y0.21608
G1 X0.56592 Y0.71980
G1 X0.00000 Y0.91563
G1 X-0.56592 Y0.71980
G1 X-0.88977 Y0.21608
G1 X-0.83302 Y-0.38006
G1 X-0.41996 Y-0.81364
G1 X0.00000 Y0.00000
G4 P0 ; pause before line 
G1 F2000 ;  MEWing speed 
G1 X-30.00000 Y0.00000
G4 P0 ; pause after line 
G1 F2000 ; loop speed
G1 X-0.41996 Y-0.81364
G1 X-0.83302 Y-0.38006
G1 X-0.88977 Y0.21608
G1 X-0.56592 Y0.71980
G1 X0.00000 Y0.91563
G1 X0.56592 Y0.71980
G1 X0.88977 Y0.21608
G1 X0.83302 Y-0.38006
G1 X0.41996 Y-0.81364
G1 X0.00000 Y0.00000
G4 P0 ; pause before line 
G1 F2000 ; MEWing speed 
G1 X30.00000 Y0.00000
G4 P0 ; pause after line 
G1 F2000 ; loop speed
G1 X0.41996 Y-0.81364
G1 X0.83302 Y-0.38006
G1 X0.88977 Y0.21608
G1 X0.56592 Y0.71980
G1 X0.00000 Y0.91563
G1 X-0.56592 Y0.71980
G1 X-0.88977 Y0.21608
G1 X-0.83302 Y-0.38006
G1 X-0.41996 Y-0.81364
G1 X0.00000 Y0.00000
G4 P0 ; pause before line 
G1 F2000 ;  MEWing speed 
G1 X-30.00000 Y0.00000
G4 P0 ; pause after line 
G1 F2000 ; loop speed
G1 X-0.41996 Y-0.81364
G1 X-0.83302 Y-0.38006
G1 X-0.88977 Y0.21608
G1 X-0.56592 Y0.71980
G1 X0.00000 Y0.91563
G1 X0.56592 Y0.71980
G1 X0.88977 Y0.21608
G1 X0.83302 Y-0.38006
G1 X0.41996 Y-0.81364
G4 P0 ; pause before line 
G1 F2000 ; MEWing speed 
G1 X30.00000 Y0.00000
G4 P0 ; pause after line 
G1 F2000 ; loop speed
G1 X0.41996 Y-0.81364
G1 X0.83302 Y-0.38006
G1 X0.88977 Y0.21608
G1 X0.56592 Y0.71980
G1 X0.00000 Y0.91563
G1 X-0.56592 Y0.71980
G1 X-0.88977 Y0.21608
G1 X-0.83302 Y-0.38006
G1 X-0.41996 Y-0.81364
G4 P0 ; pause before line 
G1 F2000 ;  MEWing speed 
G1 X-30.00000 Y0.00000
G4 P0 ; pause after line 
G1 F2000 ; loop speed
G1 X-0.41996 Y-0.81364
G1 X-0.83302 Y-0.38006
G1 X-0.88977 Y0.21608
G1 X-0.56592 Y0.71980
G1 X0.00000 Y0.91563
G1 X0.56592 Y0.71980
G1 X0.88977 Y0.21608
G1 X0.83302 Y-0.38006
G1 X0.41996 Y-0.81364
G1 X0.00000 Y0.00000
G4 P0 ; pause before line 
G1 F2000 ; MEWing speed 
G1 X30.00000 Y0.00000
G4 P0 ; pause after line 
G1 F2000 ; loop speed
G1 X0.41996 Y-0.81364
G1 X0.83302 Y-0.38006
G1 X0.88977 Y0.21608
G1 X0.56592 Y0.71980
G1 X0.00000 Y0.91563
G1 X-0.56592 Y0.71980
G1 X-0.88977 Y0.21608
G1 X-0.83302 Y-0.38006
G1 X-0.41996 Y-0.81364
G4 P0 ; pause before line 
G1 F2000 ;  MEWing speed 
G1 X-30.00000 Y0.00000
G4 P0 ; pause after line 
G1 F2000 ; loop speed
G1 X-0.41996 Y-0.81364
G1 X-0.83302 Y-0.38006
G1 X-0.88977 Y0.21608
G1 X-0.56592 Y0.71980
G1 X0.00000 Y0.91563
G1 X0.56592 Y0.71980
G1 X0.88977 Y0.21608
G1 X0.83302 Y-0.38006
G1 X0.41996 Y-0.81364
G1 X0.00000 Y-0.00000
G4 P0 ; pause before line 
G1 F2000 ; MEWing speed 
G1 X30.00000 Y0.00000
G4 P0 ; pause after line 
G1 F2000 ; loop speed
G1 X0.41996 Y-0.81364
G1 X0.83302 Y-0.38006
G1 X0.88977 Y0.21608
G1 X0.56592 Y0.71980
G1 X0.00000 Y0.91563
G1 X-0.56592 Y0.71980
G1 X-0.88977 Y0.21608
G1 X-0.83302 Y-0.38006
G1 X-0.41996 Y-0.81364
G4 P0 ; pause before line 
G1 F2000 ;  MEWing speed 
G1 X-30.00000 Y0.00000
G4 P0 ; pause after line 
G1 F2000 ; loop speed
G1 X-0.41996 Y-0.81364
G1 X-0.83302 Y-0.38006
G1 X-0.88977 Y0.21608
G1 X-0.56592 Y0.71980
G1 X0.00000 Y0.91563
G1 X0.56592 Y0.71980
G1 X0.88977 Y0.21608
G1 X0.83302 Y-0.38006
G1 X0.41996 Y-0.81364
G1 X0.00000 Y-0.00000
G4 P0 ; pause before line 
G1 F2000 ; MEWing speed 
G1 X30.00000 Y0.00000
G4 P0 ; pause after line 
G1 F2000 ; loop speed
G1 X0.41996 Y-0.81364
G1 X0.83302 Y-0.38006
G1 X0.88977 Y0.21608
G1 X0.56592 Y0.71980
G1 X0.00000 Y0.91563
G1 X-0.56592 Y0.71980
G1 X-0.88977 Y0.21608
G1 X-0.83302 Y-0.38006
G1 X-0.41996 Y-0.81364
G4 P0 ; pause before line 
G1 F2000 ;  MEWing speed 
G1 X-30.00000 Y0.00000
G4 P0 ; pause after line 
G1 F2000 ; loop speed
G1 X-0.41996 Y-0.81364
G1 X-0.83302 Y-0.38006
G1 X-0.88977 Y0.21608
G1 X-0.56592 Y0.71980
G1 X0.00000 Y0.91563
G1 X0.56592 Y0.71980
G1 X0.88977 Y0.21608
G1 X0.83302 Y-0.38006
G1 X0.41996 Y-0.81364
G1 X0.00000 Y-0.00000
G4 P0 ; pause before line 
G1 F2000 ; MEWing speed 
G1 X30.00000 Y0.00000
G4 P0 ; pause after line 
G1 F2000 ; loop speed
G1 X0.41996 Y-0.81364
G1 X0.83302 Y-0.38006
G1 X0.88977 Y0.21608
G1 X0.56592 Y0.71980
G1 X0.00000 Y0.91563
G1 X-0.56592 Y0.71980
G1 X-0.88977 Y0.21608
G1 X-0.83302 Y-0.38006
G1 X-0.41996 Y-0.81364
G1 X0.00000 Y-0.00000
G4 P0 ; pause before line 
G1 F2000 ;  MEWing speed 
G1 X-30.00000 Y0.00000
G4 P0 ; pause after line 
G1 F2000 ; loop speed
G1 X-0.41996 Y-0.81364
G1 X-0.83302 Y-0.38006
G1 X-0.88977 Y0.21608
G1 X-0.56592 Y0.71980
G1 X0.00000 Y0.91563
G1 X0.56592 Y0.71980
G1 X0.88977 Y0.21608
G1 X0.83302 Y-0.38006
G1 X0.41996 Y-0.81364
G4 P0 ; pause before line 
G1 F2000 ; MEWing speed 
G1 X30.00000 Y0.00000
G4 P0 ; pause after line 
G1 F2000 ; loop speed
G1 X0.41996 Y-0.81364
G1 X0.83302 Y-0.38006
G1 X0.88977 Y0.21608
G1 X0.56592 Y0.71980
G1 X0.00000 Y0.91563
G1 X-0.56592 Y0.71980
G1 X-0.88977 Y0.21608
G1 X-0.83302 Y-0.38006
G1 X-0.41996 Y-0.81364
G1 X0.00000 Y-0.00000
G4 P0 ; pause before line 
G1 F2000 ;  MEWing speed 
G1 X-30.00000 Y0.00000
G4 P0 ; pause after line 
G1 F2000 ; loop speed
G1 X-0.41996 Y-0.81364
G1 X-0.83302 Y-0.38006
G1 X-0.88977 Y0.21608
G1 X-0.56592 Y0.71980
G1 X0.00000 Y0.91563
G1 X0.56592 Y0.71980
G1 X0.88977 Y0.21608
G1 X0.83302 Y-0.38006
G1 X0.41996 Y-0.81364
G4 P0 ; pause before line 
G1 F2000 ; MEWing speed 
G1 X30.00000 Y0.00000
G4 P0 ; pause after line 
G1 F2000 ; loop speed
G1 X0.41996 Y-0.81364
G1 X0.83302 Y-0.38006
G1 X0.88977 Y0.21608
G1 X0.56592 Y0.71980
G1 X0.00000 Y0.91563
G1 X-0.56592 Y0.71980
G1 X-0.88977 Y0.21608
G1 X-0.83302 Y-0.38006
G1 X-0.41996 Y-0.81364
G1 X0.00000 Y-0.00000
G4 P0 ; pause before line 
G1 F2000 ;  MEWing speed 
G1 X-30.00000 Y0.00000
G4 P0 ; pause after line 
G1 F2000 ; loop speed
G1 X-0.41996 Y-0.81364
G1 X-0.83302 Y-0.38006
G1 X-0.88977 Y0.21608
G1 X-0.56592 Y0.71980
G1 X0.00000 Y0.91563
G1 X0.56592 Y0.71980
G1 X0.88977 Y0.21608
G1 X0.83302 Y-0.38006
G1 X0.41996 Y-0.81364
G4 P0 ; pause before line 
G1 F2000 ; MEWing speed 
G1 X30.00000 Y0.00000
G4 P0 ; pause after line 
G1 F2000 ; loop speed
G1 X0.41996 Y-0.81364
G1 X0.83302 Y-0.38006
G1 X0.88977 Y0.21608
G1 X0.56592 Y0.71980
G1 X0.00000 Y0.91563
G1 X-0.56592 Y0.71980
G1 X-0.88977 Y0.21608
G1 X-0.83302 Y-0.38006
G1 X-0.41996 Y-0.81364
G1 X0.00000 Y-0.00000
G4 P0 ; pause before line 
G1 F2000 ;  MEWing speed 
G1 X-30.00000 Y0.00000
G4 P0 ; pause after line 
G1 F2000 ; loop speed
G1 X-0.41996 Y-0.81364
G1 X-0.83302 Y-0.38006
G1 X-0.88977 Y0.21608
G1 X-0.56592 Y0.71980
G1 X0.00000 Y0.91563
G1 X0.56592 Y0.71980
G1 X0.88977 Y0.21608
G1 X0.83302 Y-0.38006
G1 X0.41996 Y-0.81364
G1 X0.00000 Y-0.00000
G4 P0 ; pause before line 
G1 F2000 ; MEWing speed 
G1 X30.00000 Y0.00000
G4 P0 ; pause after line 
G1 F2000 ; loop speed
G1 X0.41996 Y-0.81364
G1 X0.83302 Y-0.38006
G1 X0.88977 Y0.21608
G1 X0.56592 Y0.71980
G1 X0.00000 Y0.91563
G1 X-0.56592 Y0.71980
G1 X-0.88977 Y0.21608
G1 X-0.83302 Y-0.38006
G1 X-0.41996 Y-0.81364
G4 P0 ; pause before line 
G1 F2000 ;  MEWing speed 
G1 X-30.00000 Y0.00000
G4 P0 ; pause after line 
G1 F2000 ; loop speed
G1 X-0.41996 Y-0.81364
G1 X-0.83302 Y-0.38006
G1 X-0.88977 Y0.21608
G1 X-0.56592 Y0.71980
G1 X0.00000 Y0.91563
G1 X0.56592 Y0.71980
G1 X0.88977 Y0.21608
G1 X0.83302 Y-0.38006
G1 X0.41996 Y-0.81364
G1 X0.00000 Y-0.00000
G4 P0 ; pause before line 
G1 F2000 ; MEWing speed 
G1 X30.00000 Y0.00000
G4 P0 ; pause after line 
G1 F2000 ; loop speed
G1 X0.41996 Y-0.81364
G1 X0.83302 Y-0.38006
G1 X0.88977 Y0.21608
G1 X0.56592 Y0.71980
G1 X0.00000 Y0.91563
G1 X-0.56592 Y0.71980
G1 X-0.88977 Y0.21608
G1 X-0.83302 Y-0.38006
G1 X-0.41996 Y-0.81364
G4 P0 ; pause before line 
G1 F2000 ;  MEWing speed 
G1 X-30.00000 Y0.00000
G4 P0 ; pause after line 
G1 F2000 ; loop speed
G1 X-0.41996 Y-0.81364
G1 X-0.83302 Y-0.38006
G1 X-0.88977 Y0.21608
G1 X-0.56592 Y0.71980
G1 X0.00000 Y0.91563
G1 X0.56592 Y0.71980
G1 X0.88977 Y0.21608
G1 X0.83302 Y-0.38006
G1 X0.41996 Y-0.81364
G1 X0.00000 Y-0.00000
G4 P0 ; pause before line 
G1 F2000 ; MEWing speed 
G1 X30.00000 Y0.00000
G4 P0 ; pause after line 
G1 F2000 ; loop speed
G1 X0.41996 Y-0.81364
G1 X0.83302 Y-0.38006
G1 X0.88977 Y0.21608
G1 X0.56592 Y0.71980
G1 X0.00000 Y0.91563
G1 X-0.56592 Y0.71980
G1 X-0.88977 Y0.21608
G1 X-0.83302 Y-0.38006
G1 X-0.41996 Y-0.81364
G1 X0.00000 Y-0.00000
G4 P0 ; pause before line 
G1 F2000 ;  MEWing speed 
G1 X-30.00000 Y0.00000
G4 P0 ; pause after line 
G1 F2000 ; loop speed
G1 X-0.41996 Y-0.81364
G1 X-0.83302 Y-0.38006
G1 X-0.88977 Y0.21608
G1 X-0.56592 Y0.71980
G1 X0.00000 Y0.91563
G1 X0.56592 Y0.71980
G1 X0.88977 Y0.21608
G1 X0.83302 Y-0.38006
G1 X0.41996 Y-0.81364
G1 X0.00000 Y0.00000
G4 P0 ; pause before line 
G1 F2000 ; MEWing speed 
G1 X30.00000 Y0.00000
G4 P0 ; pause after line 
G1 F2000 ; loop speed
G1 X0.41996 Y-0.81364
G1 X0.83302 Y-0.38006
G1 X0.88977 Y0.21608
G1 X0.56592 Y0.71980
G1 X0.00000 Y0.91563
G1 X-0.56592 Y0.71980
G1 X-0.88977 Y0.21608
G1 X-0.83302 Y-0.38006
G1 X-0.41996 Y-0.81364
G1 X0.00000 Y-0.00000
G4 P0 ; pause before line 
G1 F2000 ;  MEWing speed 
G1 X-30.00000 Y0.00000
G4 P0 ; pause after line 
G1 F2000 ; loop speed
G1 X-0.41996 Y-0.81364
G1 X-0.83302 Y-0.38006
G1 X-0.88977 Y0.21608
G1 X-0.56592 Y0.71980
G1 X0.00000 Y0.91563
G1 X0.56592 Y0.71980
G1 X0.88977 Y0.21608
G1 X0.83302 Y-0.38006
G1 X0.41996 Y-0.81364
G4 P0 ; pause before line 
G1 F2000 ; MEWing speed 
G1 X30.00000 Y0.00000
G4 P0 ; pause after line 
G1 F2000 ; loop speed
G1 X0.41996 Y-0.81364
G1 X0.83302 Y-0.38006
G1 X0.88977 Y0.21608
G1 X0.56592 Y0.71980
G1 X0.00000 Y0.91563
G1 X-0.56592 Y0.71980
G1 X-0.88977 Y0.21608
G1 X-0.83302 Y-0.38006
G1 X-0.41996 Y-0.81364
G4 P0 ; pause before line 
G1 F2000 ;  MEWing speed 
G1 X-30.00000 Y0.00000
G4 P0 ; pause after line 
G1 F2000 ; loop speed
G1 X-0.41996 Y-0.81364
G1 X-0.83302 Y-0.38006
G1 X-0.88977 Y0.21608
G1 X-0.56592 Y0.71980
G1 X0.00000 Y0.91563
G1 X0.56592 Y0.71980
G1 X0.88977 Y0.21608
G1 X0.83302 Y-0.38006
G1 X0.41996 Y-0.81364
G4 P0 ; pause before line 
G1 F2000 ; MEWing speed 
G1 X30.00000 Y0.00000
G4 P0 ; pause after line 
G1 F2000 ; loop speed
G1 X0.41996 Y-0.81364
G1 X0.83302 Y-0.38006
G1 X0.88977 Y0.21608
G1 X0.56592 Y0.71980
G1 X0.00000 Y0.91563
G1 X-0.56592 Y0.71980
G1 X-0.88977 Y0.21608
G1 X-0.83302 Y-0.38006
G1 X-0.41996 Y-0.81364
G1 X0.00000 Y0.00000
G4 P0 ; pause before line 
G1 F2000 ;  MEWing speed 
G1 X-30.00000 Y0.00000
G4 P0 ; pause after line 
G1 F2000 ; loop speed
G1 X-0.41996 Y-0.81364
G1 X-0.83302 Y-0.38006
G1 X-0.88977 Y0.21608
G1 X-0.56592 Y0.71980
G1 X0.00000 Y0.91563
G1 X0.56592 Y0.71980
G1 X0.88977 Y0.21608
G1 X0.83302 Y-0.38006
G1 X0.41996 Y-0.81364
G4 P0 ; pause before line 
G1 F2000 ; MEWing speed 
G1 X30.00000 Y0.00000
G4 P0 ; pause after line 
G1 F2000 ; loop speed
G1 X0.41996 Y-0.81364
G1 X0.83302 Y-0.38006
G1 X0.88977 Y0.21608
G1 X0.56592 Y0.71980
G1 X0.00000 Y0.91563
G1 X-0.56592 Y0.71980
G1 X-0.88977 Y0.21608
G1 X-0.83302 Y-0.38006
G1 X-0.41996 Y-0.81364
G1 X0.00000 Y0.00000
G4 P0 ; pause before line 
G1 F2000 ;  MEWing speed 
G1 X-30.00000 Y0.00000
G4 P0 ; pause after line 
G1 F2000 ; loop speed
G1 X-0.41996 Y-0.81364
G1 X-0.83302 Y-0.38006
G1 X-0.88977 Y0.21608
G1 X-0.56592 Y0.71980
G1 X0.00000 Y0.91563
G1 X0.56592 Y0.71980
G1 X0.88977 Y0.21608
G1 X0.83302 Y-0.38006
G1 X0.41996 Y-0.81364
G4 P0 ; pause before line 
G1 F2000 ; MEWing speed 
G1 X30.00000 Y0.00000
G4 P0 ; pause after line 
G1 F2000 ; loop speed
G1 X0.41996 Y-0.81364
G1 X0.83302 Y-0.38006
G1 X0.88977 Y0.21608
G1 X0.56592 Y0.71980
G1 X0.00000 Y0.91563
G1 X-0.56592 Y0.71980
G1 X-0.88977 Y0.21608
G1 X-0.83302 Y-0.38006
G1 X-0.41996 Y-0.81364
G4 P0 ; pause before line 
G1 F2000 ;  MEWing speed 
G1 X-30.00000 Y0.00000
G4 P0 ; pause after line 
G1 F2000 ; loop speed
G1 X-0.41996 Y-0.81364
G1 X-0.83302 Y-0.38006
G1 X-0.88977 Y0.21608
G1 X-0.56592 Y0.71980
G1 X0.00000 Y0.91563
G1 X0.56592 Y0.71980
G1 X0.88977 Y0.21608
G1 X0.83302 Y-0.38006
G1 X0.41996 Y-0.81364
G1 X0.00000 Y0.00000
G4 P0 ; pause before line 
G1 F2000 ; MEWing speed 
G1 X30.00000 Y0.00000
G4 P0 ; pause after line 
G1 F2000 ; loop speed
G1 X0.41996 Y-0.81364
G1 X0.83302 Y-0.38006
G1 X0.88977 Y0.21608
G1 X0.56592 Y0.71980
G1 X0.00000 Y0.91563
G1 X-0.56592 Y0.71980
G1 X-0.88977 Y0.21608
G1 X-0.83302 Y-0.38006
G1 X-0.41996 Y-0.81364
G4 P0 ; pause before line 
G1 F2000 ;  MEWing speed 
G1 X-30.00000 Y0.00000
G4 P0 ; pause after line 
G1 F2000 ; loop speed
G1 X-0.41996 Y-0.81364
G1 X-0.83302 Y-0.38006
G1 X-0.88977 Y0.21608
G1 X-0.56592 Y0.71980
G1 X0.00000 Y0.91563
G1 X0.56592 Y0.71980
G1 X0.88977 Y0.21608
G1 X0.83302 Y-0.38006
G1 X0.41996 Y-0.81364
G1 X0.00000 Y0.00000
G4 P0 ; pause before line 
G1 F2000 ; MEWing speed 
G1 X30.00000 Y0.00000
G4 P0 ; pause after line 
G1 F2000 ; loop speed
G1 X0.41996 Y-0.81364
G1 X0.83302 Y-0.38006
G1 X0.88977 Y0.21608
G1 X0.56592 Y0.71980
G1 X0.00000 Y0.91563
G1 X-0.56592 Y0.71980
G1 X-0.88977 Y0.21608
G1 X-0.83302 Y-0.38006
G1 X-0.41996 Y-0.81364
G1 X0.00000 Y-0.00000
G4 P0 ; pause before line 
G1 F2000 ;  MEWing speed 
G1 X-30.00000 Y0.00000
G4 P0 ; pause after line 
G1 F2000 ; loop speed
G1 X-0.41996 Y-0.81364
G1 X-0.83302 Y-0.38006
G1 X-0.88977 Y0.21608
G1 X-0.56592 Y0.71980
G1 X0.00000 Y0.91563
G1 X0.56592 Y0.71980
G1 X0.88977 Y0.21608
G1 X0.83302 Y-0.38006
G1 X0.41996 Y-0.81364
G1 X0.00000 Y-0.00000
G4 P0 ; pause before line 
G1 F2000 ; MEWing speed 
G1 X30.00000 Y0.00000
G4 P0 ; pause after line 
G1 F2000 ; loop speed
G1 X0.41996 Y-0.81364
G1 X0.83302 Y-0.38006
G1 X0.88977 Y0.21608
G1 X0.56592 Y0.71980
G1 X0.00000 Y0.91563
G1 X-0.56592 Y0.71980
G1 X-0.88977 Y0.21608
G1 X-0.83302 Y-0.38006
G1 X-0.41996 Y-0.81364
G1 X0.00000 Y0.00000
G4 P0 ; pause before line 
G1 F2000 ;  MEWing speed 
G1 X-30.00000 Y0.00000
G4 P0 ; pause after line 
G1 F2000 ; loop speed
G1 X-0.41996 Y-0.81364
G1 X-0.83302 Y-0.38006
G1 X-0.88977 Y0.21608
G1 X-0.56592 Y0.71980
G1 X0.00000 Y0.91563
G1 X0.56592 Y0.71980
G1 X0.88977 Y0.21608
G1 X0.83302 Y-0.38006
G1 X0.41996 Y-0.81364
G1 X0.00000 Y-0.00000
G4 P0 ; pause before line 
G1 F2000 ; MEWing speed 
G1 X30.00000 Y0.00000
G4 P0 ; pause after line 
G1 F2000 ; loop speed
G1 X0.41996 Y-0.81364
G1 X0.83302 Y-0.38006
G1 X0.88977 Y0.21608
G1 X0.56592 Y0.71980
G1 X0.00000 Y0.91563
G1 X-0.56592 Y0.71980
G1 X-0.88977 Y0.21608
G1 X-0.83302 Y-0.38006
G1 X-0.41996 Y-0.81364
G1 X0.00000 Y0.00000
G4 P0 ; pause before line 
G1 F2000 ;  MEWing speed 
G1 X-30.00000 Y0.00000
G4 P0 ; pause after line 
G1 F2000 ; loop speed
G1 X-0.41996 Y-0.81364
G1 X-0.83302 Y-0.38006
G1 X-0.88977 Y0.21608
G1 X-0.56592 Y0.71980
G1 X0.00000 Y0.91563
G1 X0.56592 Y0.71980
G1 X0.88977 Y0.21608
G1 X0.83302 Y-0.38006
G1 X0.41996 Y-0.81364
G1 X0.00000 Y-0.00000
G4 P0 ; pause before line 
G1 F2000 ; MEWing speed 
G1 X30.00000 Y0.00000
G4 P0 ; pause after line 
G1 F2000 ; loop speed
G1 X0.41996 Y-0.81364
G1 X0.83302 Y-0.38006
G1 X0.88977 Y0.21608
G1 X0.56592 Y0.71980
G1 X0.00000 Y0.91563
G1 X-0.56592 Y0.71980
G1 X-0.88977 Y0.21608
G1 X-0.83302 Y-0.38006
G1 X-0.41996 Y-0.81364
G1 X0.00000 Y-0.00000
G4 P0 ; pause before line 
G1 F2000 ;  MEWing speed 
G1 X-30.00000 Y0.00000
G4 P0 ; pause after line 
G1 F2000 ; loop speed
G1 X-0.41996 Y-0.81364
G1 X-0.83302 Y-0.38006
G1 X-0.88977 Y0.21608
G1 X-0.56592 Y0.71980
G1 X0.00000 Y0.91563
G1 X0.56592 Y0.71980
G1 X0.88977 Y0.21608
G1 X0.83302 Y-0.38006
G1 X0.41996 Y-0.81364
G1 X0.00000 Y-0.40000
G4 P0 ; pause before line 
G1 F2000 ; MEWing speed 
G1 X0.00000 Y-30.00000
G4 P0 ; pause after line 
G1 F2000 ; loop speed
G1 X-0.81364 Y-0.41996
G1 X-0.38006 Y-0.83302
G1 X0.21608 Y-0.88977
G1 X0.71980 Y-0.56592
G1 X0.91563 Y0.00000
G1 X0.71980 Y0.56592
G1 X0.21608 Y0.88977
G1 X-0.38006 Y0.83302
G1 X-0.81364 Y0.41996
G1 X0.00000 Y0.00000
G4 P0 ; pause before line 
G1 F2000 ; MEWing speed 
G1 X0.00000 Y30.00000
G4 P0 ; pause after line 
G1 F2000 ; loop speed
G1 X-0.81364 Y0.41996
G1 X-0.38006 Y0.83302
G1 X0.21608 Y0.88977
G1 X0.71980 Y0.56592
G1 X0.91563 Y0.00000
G1 X0.71980 Y-0.56592
G1 X0.21608 Y-0.88977
G1 X-0.38006 Y-0.83302
G1 X-0.81364 Y-0.41996
G1 X0.00000 Y0.00000
G4 P0 ; pause before line 
G1 F2000 ; MEWing speed 
G1 X0.00000 Y-30.00000
G4 P0 ; pause after line 
G1 F2000 ; loop speed
G1 X-0.81364 Y-0.41996
G1 X-0.38006 Y-0.83302
G1 X0.21608 Y-0.88977
G1 X0.71980 Y-0.56592
G1 X0.91563 Y0.00000
G1 X0.71980 Y0.56592
G1 X0.21608 Y0.88977
G1 X-0.38006 Y0.83302
G1 X-0.81364 Y0.41996
G1 X0.00000 Y0.00000
G4 P0 ; pause before line 
G1 F2000 ; MEWing speed 
G1 X0.00000 Y30.00000
G4 P0 ; pause after line 
G1 F2000 ; loop speed
G1 X-0.81364 Y0.41996
G1 X-0.38006 Y0.83302
G1 X0.21608 Y0.88977
G1 X0.71980 Y0.56592
G1 X0.91563 Y0.00000
G1 X0.71980 Y-0.56592
G1 X0.21608 Y-0.88977
G1 X-0.38006 Y-0.83302
G1 X-0.81364 Y-0.41996
G1 X0.00000 Y0.00000
G4 P0 ; pause before line 
G1 F2000 ; MEWing speed 
G1 X0.00000 Y-30.00000
G4 P0 ; pause after line 
G1 F2000 ; loop speed
G1 X-0.81364 Y-0.41996
G1 X-0.38006 Y-0.83302
G1 X0.21608 Y-0.88977
G1 X0.71980 Y-0.56592
G1 X0.91563 Y0.00000
G1 X0.71980 Y0.56592
G1 X0.21608 Y0.88977
G1 X-0.38006 Y0.83302
G1 X-0.81364 Y0.41996
G1 X0.00000 Y0.00000
G4 P0 ; pause before line 
G1 F2000 ; MEWing speed 
G1 X0.00000 Y30.00000
G4 P0 ; pause after line 
G1 F2000 ; loop speed
G1 X-0.81364 Y0.41996
G1 X-0.38006 Y0.83302
G1 X0.21608 Y0.88977
G1 X0.71980 Y0.56592
G1 X0.91563 Y0.00000
G1 X0.71980 Y-0.56592
G1 X0.21608 Y-0.88977
G1 X-0.38006 Y-0.83302
G1 X-0.81364 Y-0.41996
G1 X0.00000 Y0.00000
G4 P0 ; pause before line 
G1 F2000 ; MEWing speed 
G1 X0.00000 Y-30.00000
G4 P0 ; pause after line 
G1 F2000 ; loop speed
G1 X-0.81364 Y-0.41996
G1 X-0.38006 Y-0.83302
G1 X0.21608 Y-0.88977
G1 X0.71980 Y-0.56592
G1 X0.91563 Y0.00000
G1 X0.71980 Y0.56592
G1 X0.21608 Y0.88977
G1 X-0.38006 Y0.83302
G1 X-0.81364 Y0.41996
G1 X0.00000 Y0.00000
G4 P0 ; pause before line 
G1 F2000 ; MEWing speed 
G1 X0.00000 Y30.00000
G4 P0 ; pause after line 
G1 F2000 ; loop speed
G1 X-0.81364 Y0.41996
G1 X-0.38006 Y0.83302
G1 X0.21608 Y0.88977
G1 X0.71980 Y0.56592
G1 X0.91563 Y0.00000
G1 X0.71980 Y-0.56592
G1 X0.21608 Y-0.88977
G1 X-0.38006 Y-0.83302
G1 X-0.81364 Y-0.41996
G1 X0.00000 Y0.00000
G4 P0 ; pause before line 
G1 F2000 ; MEWing speed 
G1 X0.00000 Y-30.00000
G4 P0 ; pause after line 
G1 F2000 ; loop speed
G1 X-0.81364 Y-0.41996
G1 X-0.38006 Y-0.83302
G1 X0.21608 Y-0.88977
G1 X0.71980 Y-0.56592
G1 X0.91563 Y0.00000
G1 X0.71980 Y0.56592
G1 X0.21608 Y0.88977
G1 X-0.38006 Y0.83302
G1 X-0.81364 Y0.41996
G1 X0.00000 Y0.00000
G4 P0 ; pause before line 
G1 F2000 ; MEWing speed 
G1 X0.00000 Y30.00000
G4 P0 ; pause after line 
G1 F2000 ; loop speed
G1 X-0.81364 Y0.41996
G1 X-0.38006 Y0.83302
G1 X0.21608 Y0.88977
G1 X0.71980 Y0.56592
G1 X0.91563 Y0.00000
G1 X0.71980 Y-0.56592
G1 X0.21608 Y-0.88977
G1 X-0.38006 Y-0.83302
G1 X-0.81364 Y-0.41996
G1 X0.00000 Y0.00000
G4 P0 ; pause before line 
G1 F2000 ; MEWing speed 
G1 X0.00000 Y-30.00000
G4 P0 ; pause after line 
G1 F2000 ; loop speed
G1 X-0.81364 Y-0.41996
G1 X-0.38006 Y-0.83302
G1 X0.21608 Y-0.88977
G1 X0.71980 Y-0.56592
G1 X0.91563 Y0.00000
G1 X0.71980 Y0.56592
G1 X0.21608 Y0.88977
G1 X-0.38006 Y0.83302
G1 X-0.81364 Y0.41996
G1 X0.00000 Y0.00000
G4 P0 ; pause before line 
G1 F2000 ; MEWing speed 
G1 X0.00000 Y30.00000
G4 P0 ; pause after line 
G1 F2000 ; loop speed
G1 X-0.81364 Y0.41996
G1 X-0.38006 Y0.83302
G1 X0.21608 Y0.88977
G1 X0.71980 Y0.56592
G1 X0.91563 Y0.00000
G1 X0.71980 Y-0.56592
G1 X0.21608 Y-0.88977
G1 X-0.38006 Y-0.83302
G1 X-0.81364 Y-0.41996
G1 X0.00000 Y0.00000
G4 P0 ; pause before line 
G1 F2000 ; MEWing speed 
G1 X0.00000 Y-30.00000
G4 P0 ; pause after line 
G1 F2000 ; loop speed
G1 X-0.81364 Y-0.41996
G1 X-0.38006 Y-0.83302
G1 X0.21608 Y-0.88977
G1 X0.71980 Y-0.56592
G1 X0.91563 Y0.00000
G1 X0.71980 Y0.56592
G1 X0.21608 Y0.88977
G1 X-0.38006 Y0.83302
G1 X-0.81364 Y0.41996
G1 X0.00000 Y0.00000
G4 P0 ; pause before line 
G1 F2000 ; MEWing speed 
G1 X0.00000 Y30.00000
G4 P0 ; pause after line 
G1 F2000 ; loop speed
G1 X-0.81364 Y0.41996
G1 X-0.38006 Y0.83302
G1 X0.21608 Y0.88977
G1 X0.71980 Y0.56592
G1 X0.91563 Y0.00000
G1 X0.71980 Y-0.56592
G1 X0.21608 Y-0.88977
G1 X-0.38006 Y-0.83302
G1 X-0.81364 Y-0.41996
G1 X0.00000 Y0.00000
G4 P0 ; pause before line 
G1 F2000 ; MEWing speed 
G1 X0.00000 Y-30.00000
G4 P0 ; pause after line 
G1 F2000 ; loop speed
G1 X-0.81364 Y-0.41996
G1 X-0.38006 Y-0.83302
G1 X0.21608 Y-0.88977
G1 X0.71980 Y-0.56592
G1 X0.91563 Y0.00000
G1 X0.71980 Y0.56592
G1 X0.21608 Y0.88977
G1 X-0.38006 Y0.83302
G1 X-0.81364 Y0.41996
G1 X0.00000 Y0.00000
G4 P0 ; pause before line 
G1 F2000 ; MEWing speed 
G1 X0.00000 Y30.00000
G4 P0 ; pause after line 
G1 F2000 ; loop speed
G1 X-0.81364 Y0.41996
G1 X-0.38006 Y0.83302
G1 X0.21608 Y0.88977
G1 X0.71980 Y0.56592
G1 X0.91563 Y0.00000
G1 X0.71980 Y-0.56592
G1 X0.21608 Y-0.88977
G1 X-0.38006 Y-0.83302
G1 X-0.81364 Y-0.41996
G1 X0.00000 Y0.00000
G4 P0 ; pause before line 
G1 F2000 ; MEWing speed 
G1 X0.00000 Y-30.00000
G4 P0 ; pause after line 
G1 F2000 ; loop speed
G1 X-0.81364 Y-0.41996
G1 X-0.38006 Y-0.83302
G1 X0.21608 Y-0.88977
G1 X0.71980 Y-0.56592
G1 X0.91563 Y0.00000
G1 X0.71980 Y0.56592
G1 X0.21608 Y0.88977
G1 X-0.38006 Y0.83302
G1 X-0.81364 Y0.41996
G1 X0.00000 Y0.00000
G4 P0 ; pause before line 
G1 F2000 ; MEWing speed 
G1 X0.00000 Y30.00000
G4 P0 ; pause after line 
G1 F2000 ; loop speed
G1 X-0.81364 Y0.41996
G1 X-0.38006 Y0.83302
G1 X0.21608 Y0.88977
G1 X0.71980 Y0.56592
G1 X0.91563 Y0.00000
G1 X0.71980 Y-0.56592
G1 X0.21608 Y-0.88977
G1 X-0.38006 Y-0.83302
G1 X-0.81364 Y-0.41996
G1 X0.00000 Y0.00000
G4 P0 ; pause before line 
G1 F2000 ; MEWing speed 
G1 X0.00000 Y-30.00000
G4 P0 ; pause after line 
G1 F2000 ; loop speed
G1 X-0.81364 Y-0.41996
G1 X-0.38006 Y-0.83302
G1 X0.21608 Y-0.88977
G1 X0.71980 Y-0.56592
G1 X0.91563 Y0.00000
G1 X0.71980 Y0.56592
G1 X0.21608 Y0.88977
G1 X-0.38006 Y0.83302
G1 X-0.81364 Y0.41996
G1 X0.00000 Y0.00000
G4 P0 ; pause before line 
G1 F2000 ; MEWing speed 
G1 X0.00000 Y30.00000
G4 P0 ; pause after line 
G1 F2000 ; loop speed
G1 X-0.81364 Y0.41996
G1 X-0.38006 Y0.83302
G1 X0.21608 Y0.88977
G1 X0.71980 Y0.56592
G1 X0.91563 Y0.00000
G1 X0.71980 Y-0.56592
G1 X0.21608 Y-0.88977
G1 X-0.38006 Y-0.83302
G1 X-0.81364 Y-0.41996
G1 X0.00000 Y0.00000
G4 P0 ; pause before line 
G1 F2000 ; MEWing speed 
G1 X0.00000 Y-30.00000
G4 P0 ; pause after line 
G1 F2000 ; loop speed
G1 X-0.81364 Y-0.41996
G1 X-0.38006 Y-0.83302
G1 X0.21608 Y-0.88977
G1 X0.71980 Y-0.56592
G1 X0.91563 Y0.00000
G1 X0.71980 Y0.56592
G1 X0.21608 Y0.88977
G1 X-0.38006 Y0.83302
G1 X-0.81364 Y0.41996
G1 X0.00000 Y0.00000
G4 P0 ; pause before line 
G1 F2000 ; MEWing speed 
G1 X0.00000 Y30.00000
G4 P0 ; pause after line 
G1 F2000 ; loop speed
G1 X-0.81364 Y0.41996
G1 X-0.38006 Y0.83302
G1 X0.21608 Y0.88977
G1 X0.71980 Y0.56592
G1 X0.91563 Y0.00000
G1 X0.71980 Y-0.56592
G1 X0.21608 Y-0.88977
G1 X-0.38006 Y-0.83302
G1 X-0.81364 Y-0.41996
G1 X0.00000 Y0.00000
G4 P0 ; pause before line 
G1 F2000 ; MEWing speed 
G1 X0.00000 Y-30.00000
G4 P0 ; pause after line 
G1 F2000 ; loop speed
G1 X-0.81364 Y-0.41996
G1 X-0.38006 Y-0.83302
G1 X0.21608 Y-0.88977
G1 X0.71980 Y-0.56592
G1 X0.91563 Y0.00000
G1 X0.71980 Y0.56592
G1 X0.21608 Y0.88977
G1 X-0.38006 Y0.83302
G1 X-0.81364 Y0.41996
G1 X0.00000 Y0.00000
G4 P0 ; pause before line 
G1 F2000 ; MEWing speed 
G1 X0.00000 Y30.00000
G4 P0 ; pause after line 
G1 F2000 ; loop speed
G1 X-0.81364 Y0.41996
G1 X-0.38006 Y0.83302
G1 X0.21608 Y0.88977
G1 X0.71980 Y0.56592
G1 X0.91563 Y0.00000
G1 X0.71980 Y-0.56592
G1 X0.21608 Y-0.88977
G1 X-0.38006 Y-0.83302
G1 X-0.81364 Y-0.41996
G1 X0.00000 Y0.00000
G4 P0 ; pause before line 
G1 F2000 ; MEWing speed 
G1 X0.00000 Y-30.00000
G4 P0 ; pause after line 
G1 F2000 ; loop speed
G1 X-0.81364 Y-0.41996
G1 X-0.38006 Y-0.83302
G1 X0.21608 Y-0.88977
G1 X0.71980 Y-0.56592
G1 X0.91563 Y0.00000
G1 X0.71980 Y0.56592
G1 X0.21608 Y0.88977
G1 X-0.38006 Y0.83302
G1 X-0.81364 Y0.41996
G1 X0.00000 Y0.00000
G4 P0 ; pause before line 
G1 F2000 ; MEWing speed 
G1 X0.00000 Y30.00000
G4 P0 ; pause after line 
G1 F2000 ; loop speed
G1 X-0.81364 Y0.41996
G1 X-0.38006 Y0.83302
G1 X0.21608 Y0.88977
G1 X0.71980 Y0.56592
G1 X0.91563 Y0.00000
G1 X0.71980 Y-0.56592
G1 X0.21608 Y-0.88977
G1 X-0.38006 Y-0.83302
G1 X-0.81364 Y-0.41996
G1 X0.00000 Y0.00000
G4 P0 ; pause before line 
G1 F2000 ; MEWing speed 
G1 X0.00000 Y-30.00000
G4 P0 ; pause after line 
G1 F2000 ; loop speed
G1 X-0.81364 Y-0.41996
G1 X-0.38006 Y-0.83302
G1 X0.21608 Y-0.88977
G1 X0.71980 Y-0.56592
G1 X0.91563 Y0.00000
G1 X0.71980 Y0.56592
G1 X0.21608 Y0.88977
G1 X-0.38006 Y0.83302
G1 X-0.81364 Y0.41996
G1 X0.00000 Y0.00000
G4 P0 ; pause before line 
G1 F2000 ; MEWing speed 
G1 X0.00000 Y30.00000
G4 P0 ; pause after line 
G1 F2000 ; loop speed
G1 X-0.81364 Y0.41996
G1 X-0.38006 Y0.83302
G1 X0.21608 Y0.88977
G1 X0.71980 Y0.56592
G1 X0.91563 Y0.00000
G1 X0.71980 Y-0.56592
G1 X0.21608 Y-0.88977
G1 X-0.38006 Y-0.83302
G1 X-0.81364 Y-0.41996
G1 X0.00000 Y0.00000
G4 P0 ; pause before line 
G1 F2000 ; MEWing speed 
G1 X0.00000 Y-30.00000
G4 P0 ; pause after line 
G1 F2000 ; loop speed
G1 X-0.81364 Y-0.41996
G1 X-0.38006 Y-0.83302
G1 X0.21608 Y-0.88977
G1 X0.71980 Y-0.56592
G1 X0.91563 Y0.00000
G1 X0.71980 Y0.56592
G1 X0.21608 Y0.88977
G1 X-0.38006 Y0.83302
G1 X-0.81364 Y0.41996
G1 X0.00000 Y0.00000
G4 P0 ; pause before line 
G1 F2000 ; MEWing speed 
G1 X0.00000 Y30.00000
G4 P0 ; pause after line 
G1 F2000 ; loop speed
G1 X-0.81364 Y0.41996
G1 X-0.38006 Y0.83302
G1 X0.21608 Y0.88977
G1 X0.71980 Y0.56592
G1 X0.91563 Y0.00000
G1 X0.71980 Y-0.56592
G1 X0.21608 Y-0.88977
G1 X-0.38006 Y-0.83302
G1 X-0.81364 Y-0.41996
G1 X0.00000 Y0.00000
G4 P0 ; pause before line 
G1 F2000 ; MEWing speed 
G1 X0.00000 Y-30.00000
G4 P0 ; pause after line 
G1 F2000 ; loop speed
G1 X-0.81364 Y-0.41996
G1 X-0.38006 Y-0.83302
G1 X0.21608 Y-0.88977
G1 X0.71980 Y-0.56592
G1 X0.91563 Y0.00000
G1 X0.71980 Y0.56592
G1 X0.21608 Y0.88977
G1 X-0.38006 Y0.83302
G1 X-0.81364 Y0.41996
G1 X0.00000 Y0.00000
G4 P0 ; pause before line 
G1 F2000 ; MEWing speed 
G1 X0.00000 Y30.00000
G4 P0 ; pause after line 
G1 F2000 ; loop speed
G1 X-0.81364 Y0.41996
G1 X-0.38006 Y0.83302
G1 X0.21608 Y0.88977
G1 X0.71980 Y0.56592
G1 X0.91563 Y0.00000
G1 X0.71980 Y-0.56592
G1 X0.21608 Y-0.88977
G1 X-0.38006 Y-0.83302
G1 X-0.81364 Y-0.41996
G1 X0.00000 Y0.00000
G4 P0 ; pause before line 
G1 F2000 ; MEWing speed 
G1 X0.00000 Y-30.00000
G4 P0 ; pause after line 
G1 F2000 ; loop speed
G1 X-0.81364 Y-0.41996
G1 X-0.38006 Y-0.83302
G1 X0.21608 Y-0.88977
G1 X0.71980 Y-0.56592
G1 X0.91563 Y0.00000
G1 X0.71980 Y0.56592
G1 X0.21608 Y0.88977
G1 X-0.38006 Y0.83302
G1 X-0.81364 Y0.41996
G1 X0.00000 Y0.00000
G4 P0 ; pause before line 
G1 F2000 ; MEWing speed 
G1 X0.00000 Y30.00000
G4 P0 ; pause after line 
G1 F2000 ; loop speed
G1 X-0.81364 Y0.41996
G1 X-0.38006 Y0.83302
G1 X0.21608 Y0.88977
G1 X0.71980 Y0.56592
G1 X0.91563 Y0.00000
G1 X0.71980 Y-0.56592
G1 X0.21608 Y-0.88977
G1 X-0.38006 Y-0.83302
G1 X-0.81364 Y-0.41996
G4 P0 ; pause before line 
G1 F2000 ; MEWing speed 
G1 X0.00000 Y-30.00000
G4 P0 ; pause after line 
G1 F2000 ; loop speed
G1 X-0.81364 Y-0.41996
G1 X-0.38006 Y-0.83302
G1 X0.21608 Y-0.88977
G1 X0.71980 Y-0.56592
G1 X0.91563 Y0.00000
G1 X0.71980 Y0.56592
G1 X0.21608 Y0.88977
G1 X-0.38006 Y0.83302
G1 X-0.81364 Y0.41996
G4 P0 ; pause before line 
G1 F2000 ; MEWing speed 
G1 X0.00000 Y30.00000
G4 P0 ; pause after line 
G1 F2000 ; loop speed
G1 X-0.81364 Y0.41996
G1 X-0.38006 Y0.83302
G1 X0.21608 Y0.88977
G1 X0.71980 Y0.56592
G1 X0.91563 Y0.00000
G1 X0.71980 Y-0.56592
G1 X0.21608 Y-0.88977
G1 X-0.38006 Y-0.83302
G1 X-0.81364 Y-0.41996
G1 X0.00000 Y0.00000
G4 P0 ; pause before line 
G1 F2000 ; MEWing speed 
G1 X0.00000 Y-30.00000
G4 P0 ; pause after line 
G1 F2000 ; loop speed
G1 X-0.81364 Y-0.41996
G1 X-0.38006 Y-0.83302
G1 X0.21608 Y-0.88977
G1 X0.71980 Y-0.56592
G1 X0.91563 Y0.00000
G1 X0.71980 Y0.56592
G1 X0.21608 Y0.88977
G1 X-0.38006 Y0.83302
G1 X-0.81364 Y0.41996
G4 P0 ; pause before line 
G1 F2000 ; MEWing speed 
G1 X0.00000 Y30.00000
G4 P0 ; pause after line 
G1 F2000 ; loop speed
G1 X-0.81364 Y0.41996
G1 X-0.38006 Y0.83302
G1 X0.21608 Y0.88977
G1 X0.71980 Y0.56592
G1 X0.91563 Y0.00000
G1 X0.71980 Y-0.56592
G1 X0.21608 Y-0.88977
G1 X-0.38006 Y-0.83302
G1 X-0.81364 Y-0.41996
G1 X-0.00000 Y0.00000
G4 P0 ; pause before line 
G1 F2000 ; MEWing speed 
G1 X0.00000 Y-30.00000
G4 P0 ; pause after line 
G1 F2000 ; loop speed
G1 X-0.81364 Y-0.41996
G1 X-0.38006 Y-0.83302
G1 X0.21608 Y-0.88977
G1 X0.71980 Y-0.56592
G1 X0.91563 Y0.00000
G1 X0.71980 Y0.56592
G1 X0.21608 Y0.88977
G1 X-0.38006 Y0.83302
G1 X-0.81364 Y0.41996
G4 P0 ; pause before line 
G1 F2000 ; MEWing speed 
G1 X0.00000 Y30.00000
G4 P0 ; pause after line 
G1 F2000 ; loop speed
G1 X-0.81364 Y0.41996
G1 X-0.38006 Y0.83302
G1 X0.21608 Y0.88977
G1 X0.71980 Y0.56592
G1 X0.91563 Y0.00000
G1 X0.71980 Y-0.56592
G1 X0.21608 Y-0.88977
G1 X-0.38006 Y-0.83302
G1 X-0.81364 Y-0.41996
G1 X-0.00000 Y0.00000
G4 P0 ; pause before line 
G1 F2000 ; MEWing speed 
G1 X0.00000 Y-30.00000
G4 P0 ; pause after line 
G1 F2000 ; loop speed
G1 X-0.81364 Y-0.41996
G1 X-0.38006 Y-0.83302
G1 X0.21608 Y-0.88977
G1 X0.71980 Y-0.56592
G1 X0.91563 Y0.00000
G1 X0.71980 Y0.56592
G1 X0.21608 Y0.88977
G1 X-0.38006 Y0.83302
G1 X-0.81364 Y0.41996
G4 P0 ; pause before line 
G1 F2000 ; MEWing speed 
G1 X0.00000 Y30.00000
G4 P0 ; pause after line 
G1 F2000 ; loop speed
G1 X-0.81364 Y0.41996
G1 X-0.38006 Y0.83302
G1 X0.21608 Y0.88977
G1 X0.71980 Y0.56592
G1 X0.91563 Y0.00000
G1 X0.71980 Y-0.56592
G1 X0.21608 Y-0.88977
G1 X-0.38006 Y-0.83302
G1 X-0.81364 Y-0.41996
G1 X-0.00000 Y0.00000
G4 P0 ; pause before line 
G1 F2000 ; MEWing speed 
G1 X0.00000 Y-30.00000
G4 P0 ; pause after line 
G1 F2000 ; loop speed
G1 X-0.81364 Y-0.41996
G1 X-0.38006 Y-0.83302
G1 X0.21608 Y-0.88977
G1 X0.71980 Y-0.56592
G1 X0.91563 Y0.00000
G1 X0.71980 Y0.56592
G1 X0.21608 Y0.88977
G1 X-0.38006 Y0.83302
G1 X-0.81364 Y0.41996
G1 X-0.00000 Y0.00000
G4 P0 ; pause before line 
G1 F2000 ; MEWing speed 
G1 X0.00000 Y30.00000
G4 P0 ; pause after line 
G1 F2000 ; loop speed
G1 X-0.81364 Y0.41996
G1 X-0.38006 Y0.83302
G1 X0.21608 Y0.88977
G1 X0.71980 Y0.56592
G1 X0.91563 Y0.00000
G1 X0.71980 Y-0.56592
G1 X0.21608 Y-0.88977
G1 X-0.38006 Y-0.83302
G1 X-0.81364 Y-0.41996
G4 P0 ; pause before line 
G1 F2000 ; MEWing speed 
G1 X0.00000 Y-30.00000
G4 P0 ; pause after line 
G1 F2000 ; loop speed
G1 X-0.81364 Y-0.41996
G1 X-0.38006 Y-0.83302
G1 X0.21608 Y-0.88977
G1 X0.71980 Y-0.56592
G1 X0.91563 Y0.00000
G1 X0.71980 Y0.56592
G1 X0.21608 Y0.88977
G1 X-0.38006 Y0.83302
G1 X-0.81364 Y0.41996
G1 X-0.00000 Y0.00000
G4 P0 ; pause before line 
G1 F2000 ; MEWing speed 
G1 X0.00000 Y30.00000
G4 P0 ; pause after line 
G1 F2000 ; loop speed
G1 X-0.81364 Y0.41996
G1 X-0.38006 Y0.83302
G1 X0.21608 Y0.88977
G1 X0.71980 Y0.56592
G1 X0.91563 Y0.00000
G1 X0.71980 Y-0.56592
G1 X0.21608 Y-0.88977
G1 X-0.38006 Y-0.83302
G1 X-0.81364 Y-0.41996
G4 P0 ; pause before line 
G1 F2000 ; MEWing speed 
G1 X0.00000 Y-30.00000
G4 P0 ; pause after line 
G1 F2000 ; loop speed
G1 X-0.81364 Y-0.41996
G1 X-0.38006 Y-0.83302
G1 X0.21608 Y-0.88977
G1 X0.71980 Y-0.56592
G1 X0.91563 Y0.00000
G1 X0.71980 Y0.56592
G1 X0.21608 Y0.88977
G1 X-0.38006 Y0.83302
G1 X-0.81364 Y0.41996
G1 X-0.00000 Y0.00000
G4 P0 ; pause before line 
G1 F2000 ; MEWing speed 
G1 X0.00000 Y30.00000
G4 P0 ; pause after line 
G1 F2000 ; loop speed
G1 X-0.81364 Y0.41996
G1 X-0.38006 Y0.83302
G1 X0.21608 Y0.88977
G1 X0.71980 Y0.56592
G1 X0.91563 Y0.00000
G1 X0.71980 Y-0.56592
G1 X0.21608 Y-0.88977
G1 X-0.38006 Y-0.83302
G1 X-0.81364 Y-0.41996
G4 P0 ; pause before line 
G1 F2000 ; MEWing speed 
G1 X0.00000 Y-30.00000
G4 P0 ; pause after line 
G1 F2000 ; loop speed
G1 X-0.81364 Y-0.41996
G1 X-0.38006 Y-0.83302
G1 X0.21608 Y-0.88977
G1 X0.71980 Y-0.56592
G1 X0.91563 Y0.00000
G1 X0.71980 Y0.56592
G1 X0.21608 Y0.88977
G1 X-0.38006 Y0.83302
G1 X-0.81364 Y0.41996
G1 X-0.00000 Y0.00000
G4 P0 ; pause before line 
G1 F2000 ; MEWing speed 
G1 X0.00000 Y30.00000
G4 P0 ; pause after line 
G1 F2000 ; loop speed
G1 X-0.81364 Y0.41996
G1 X-0.38006 Y0.83302
G1 X0.21608 Y0.88977
G1 X0.71980 Y0.56592
G1 X0.91563 Y0.00000
G1 X0.71980 Y-0.56592
G1 X0.21608 Y-0.88977
G1 X-0.38006 Y-0.83302
G1 X-0.81364 Y-0.41996
G1 X-0.00000 Y0.00000
G4 P0 ; pause before line 
G1 F2000 ; MEWing speed 
G1 X0.00000 Y-30.00000
G4 P0 ; pause after line 
G1 F2000 ; loop speed
G1 X-0.81364 Y-0.41996
G1 X-0.38006 Y-0.83302
G1 X0.21608 Y-0.88977
G1 X0.71980 Y-0.56592
G1 X0.91563 Y0.00000
G1 X0.71980 Y0.56592
G1 X0.21608 Y0.88977
G1 X-0.38006 Y0.83302
G1 X-0.81364 Y0.41996
G4 P0 ; pause before line 
G1 F2000 ; MEWing speed 
G1 X0.00000 Y30.00000
G4 P0 ; pause after line 
G1 F2000 ; loop speed
G1 X-0.81364 Y0.41996
G1 X-0.38006 Y0.83302
G1 X0.21608 Y0.88977
G1 X0.71980 Y0.56592
G1 X0.91563 Y0.00000
G1 X0.71980 Y-0.56592
G1 X0.21608 Y-0.88977
G1 X-0.38006 Y-0.83302
G1 X-0.81364 Y-0.41996
G1 X-0.00000 Y0.00000
G4 P0 ; pause before line 
G1 F2000 ; MEWing speed 
G1 X0.00000 Y-30.00000
G4 P0 ; pause after line 
G1 F2000 ; loop speed
G1 X-0.81364 Y-0.41996
G1 X-0.38006 Y-0.83302
G1 X0.21608 Y-0.88977
G1 X0.71980 Y-0.56592
G1 X0.91563 Y0.00000
G1 X0.71980 Y0.56592
G1 X0.21608 Y0.88977
G1 X-0.38006 Y0.83302
G1 X-0.81364 Y0.41996
G4 P0 ; pause before line 
G1 F2000 ; MEWing speed 
G1 X0.00000 Y30.00000
G4 P0 ; pause after line 
G1 F2000 ; loop speed
G1 X-0.81364 Y0.41996
G1 X-0.38006 Y0.83302
G1 X0.21608 Y0.88977
G1 X0.71980 Y0.56592
G1 X0.91563 Y0.00000
G1 X0.71980 Y-0.56592
G1 X0.21608 Y-0.88977
G1 X-0.38006 Y-0.83302
G1 X-0.81364 Y-0.41996
G1 X-0.00000 Y0.00000
G4 P0 ; pause before line 
G1 F2000 ; MEWing speed 
G1 X0.00000 Y-30.00000
G4 P0 ; pause after line 
G1 F2000 ; loop speed
G1 X-0.81364 Y-0.41996
G1 X-0.38006 Y-0.83302
G1 X0.21608 Y-0.88977
G1 X0.71980 Y-0.56592
G1 X0.91563 Y0.00000
G1 X0.71980 Y0.56592
G1 X0.21608 Y0.88977
G1 X-0.38006 Y0.83302
G1 X-0.81364 Y0.41996
G1 X-0.00000 Y0.00000
G4 P0 ; pause before line 
G1 F2000 ; MEWing speed 
G1 X0.00000 Y30.00000
G4 P0 ; pause after line 
G1 F2000 ; loop speed
G1 X-0.81364 Y0.41996
G1 X-0.38006 Y0.83302
G1 X0.21608 Y0.88977
G1 X0.71980 Y0.56592
G1 X0.91563 Y0.00000
G1 X0.71980 Y-0.56592
G1 X0.21608 Y-0.88977
G1 X-0.38006 Y-0.83302
G1 X-0.81364 Y-0.41996
G1 X0.00000 Y0.00000
G4 P0 ; pause before line 
G1 F2000 ; MEWing speed 
G1 X0.00000 Y-30.00000
G4 P0 ; pause after line 
G1 F2000 ; loop speed
G1 X-0.81364 Y-0.41996
G1 X-0.38006 Y-0.83302
G1 X0.21608 Y-0.88977
G1 X0.71980 Y-0.56592
G1 X0.91563 Y0.00000
G1 X0.71980 Y0.56592
G1 X0.21608 Y0.88977
G1 X-0.38006 Y0.83302
G1 X-0.81364 Y0.41996
G1 X-0.00000 Y0.00000
G4 P0 ; pause before line 
G1 F2000 ; MEWing speed 
G1 X0.00000 Y30.00000
G4 P0 ; pause after line 
G1 F2000 ; loop speed
G1 X-0.81364 Y0.41996
G1 X-0.38006 Y0.83302
G1 X0.21608 Y0.88977
G1 X0.71980 Y0.56592
G1 X0.91563 Y0.00000
G1 X0.71980 Y-0.56592
G1 X0.21608 Y-0.88977
G1 X-0.38006 Y-0.83302
G1 X-0.81364 Y-0.41996
G4 P0 ; pause before line 
G1 F2000 ; MEWing speed 
G1 X0.00000 Y-30.00000
G4 P0 ; pause after line 
G1 F2000 ; loop speed
G1 X-0.81364 Y-0.41996
G1 X-0.38006 Y-0.83302
G1 X0.21608 Y-0.88977
G1 X0.71980 Y-0.56592
G1 X0.91563 Y0.00000
G1 X0.71980 Y0.56592
G1 X0.21608 Y0.88977
G1 X-0.38006 Y0.83302
G1 X-0.81364 Y0.41996
G4 P0 ; pause before line 
G1 F2000 ; MEWing speed 
G1 X0.00000 Y30.00000
G4 P0 ; pause after line 
G1 F2000 ; loop speed
G1 X-0.81364 Y0.41996
G1 X-0.38006 Y0.83302
G1 X0.21608 Y0.88977
G1 X0.71980 Y0.56592
G1 X0.91563 Y0.00000
G1 X0.71980 Y-0.56592
G1 X0.21608 Y-0.88977
G1 X-0.38006 Y-0.83302
G1 X-0.81364 Y-0.41996
G4 P0 ; pause before line 
G1 F2000 ; MEWing speed 
G1 X0.00000 Y-30.00000
G4 P0 ; pause after line 
G1 F2000 ; loop speed
G1 X-0.81364 Y-0.41996
G1 X-0.38006 Y-0.83302
G1 X0.21608 Y-0.88977
G1 X0.71980 Y-0.56592
G1 X0.91563 Y0.00000
G1 X0.71980 Y0.56592
G1 X0.21608 Y0.88977
G1 X-0.38006 Y0.83302
G1 X-0.81364 Y0.41996
G1 X0.00000 Y0.00000
G4 P0 ; pause before line 
G1 F2000 ; MEWing speed 
G1 X0.00000 Y30.00000
G4 P0 ; pause after line 
G1 F2000 ; loop speed
G1 X-0.81364 Y0.41996
G1 X-0.38006 Y0.83302
G1 X0.21608 Y0.88977
G1 X0.71980 Y0.56592
G1 X0.91563 Y0.00000
G1 X0.71980 Y-0.56592
G1 X0.21608 Y-0.88977
G1 X-0.38006 Y-0.83302
G1 X-0.81364 Y-0.41996
G4 P0 ; pause before line 
G1 F2000 ; MEWing speed 
G1 X0.00000 Y-30.00000
G4 P0 ; pause after line 
G1 F2000 ; loop speed
G1 X-0.81364 Y-0.41996
G1 X-0.38006 Y-0.83302
G1 X0.21608 Y-0.88977
G1 X0.71980 Y-0.56592
G1 X0.91563 Y0.00000
G1 X0.71980 Y0.56592
G1 X0.21608 Y0.88977
G1 X-0.38006 Y0.83302
G1 X-0.81364 Y0.41996
G1 X0.00000 Y0.00000
G4 P0 ; pause before line 
G1 F2000 ; MEWing speed 
G1 X0.00000 Y30.00000
G4 P0 ; pause after line 
G1 F2000 ; loop speed
G1 X-0.81364 Y0.41996
G1 X-0.38006 Y0.83302
G1 X0.21608 Y0.88977
G1 X0.71980 Y0.56592
G1 X0.91563 Y0.00000
G1 X0.71980 Y-0.56592
G1 X0.21608 Y-0.88977
G1 X-0.38006 Y-0.83302
G1 X-0.81364 Y-0.41996
G4 P0 ; pause before line 
G1 F2000 ; MEWing speed 
G1 X0.00000 Y-30.00000
G4 P0 ; pause after line 
G1 F2000 ; loop speed
G1 X-0.81364 Y-0.41996
G1 X-0.38006 Y-0.83302
G1 X0.21608 Y-0.88977
G1 X0.71980 Y-0.56592
G1 X0.91563 Y0.00000
G1 X0.71980 Y0.56592
G1 X0.21608 Y0.88977
G1 X-0.38006 Y0.83302
G1 X-0.81364 Y0.41996
G4 P0 ; pause before line 
G1 F2000 ; MEWing speed 
G1 X0.00000 Y30.00000
G4 P0 ; pause after line 
G1 F2000 ; loop speed
G1 X-0.81364 Y0.41996
G1 X-0.38006 Y0.83302
G1 X0.21608 Y0.88977
G1 X0.71980 Y0.56592
G1 X0.91563 Y0.00000
G1 X0.71980 Y-0.56592
G1 X0.21608 Y-0.88977
G1 X-0.38006 Y-0.83302
G1 X-0.81364 Y-0.41996
G1 X0.00000 Y0.00000
G4 P0 ; pause before line 
G1 F2000 ; MEWing speed 
G1 X0.00000 Y-30.00000
G4 P0 ; pause after line 
G1 F2000 ; loop speed
G1 X-0.81364 Y-0.41996
G1 X-0.38006 Y-0.83302
G1 X0.21608 Y-0.88977
G1 X0.71980 Y-0.56592
G1 X0.91563 Y0.00000
G1 X0.71980 Y0.56592
G1 X0.21608 Y0.88977
G1 X-0.38006 Y0.83302
G1 X-0.81364 Y0.41996
G4 P0 ; pause before line 
G1 F2000 ; MEWing speed 
G1 X0.00000 Y30.00000
G4 P0 ; pause after line 
G1 F2000 ; loop speed
G1 X-0.81364 Y0.41996
G1 X-0.38006 Y0.83302
G1 X0.21608 Y0.88977
G1 X0.71980 Y0.56592
G1 X0.91563 Y0.00000
G1 X0.71980 Y-0.56592
G1 X0.21608 Y-0.88977
G1 X-0.38006 Y-0.83302
G1 X-0.81364 Y-0.41996
G1 X0.00000 Y0.00000
G4 P0 ; pause before line 
G1 F2000 ; MEWing speed 
G1 X0.00000 Y-30.00000
G4 P0 ; pause after line 
G1 F2000 ; loop speed
G1 X-0.81364 Y-0.41996
G1 X-0.38006 Y-0.83302
G1 X0.21608 Y-0.88977
G1 X0.71980 Y-0.56592
G1 X0.91563 Y0.00000
G1 X0.71980 Y0.56592
G1 X0.21608 Y0.88977
G1 X-0.38006 Y0.83302
G1 X-0.81364 Y0.41996
G1 X-0.00000 Y0.00000
G4 P0 ; pause before line 
G1 F2000 ; MEWing speed 
G1 X0.00000 Y30.00000
G4 P0 ; pause after line 
G1 F2000 ; loop speed
G1 X-0.81364 Y0.41996
G1 X-0.38006 Y0.83302
G1 X0.21608 Y0.88977
G1 X0.71980 Y0.56592
G1 X0.91563 Y0.00000
G1 X0.71980 Y-0.56592
G1 X0.21608 Y-0.88977
G1 X-0.38006 Y-0.83302
G1 X-0.81364 Y-0.41996
G1 X-0.00000 Y0.00000
G4 P0 ; pause before line 
G1 F2000 ; MEWing speed 
G1 X0.00000 Y-30.00000
G4 P0 ; pause after line 
G1 F2000 ; loop speed
G1 X-0.81364 Y-0.41996
G1 X-0.38006 Y-0.83302
G1 X0.21608 Y-0.88977
G1 X0.71980 Y-0.56592
G1 X0.91563 Y0.00000
G1 X0.71980 Y0.56592
G1 X0.21608 Y0.88977
G1 X-0.38006 Y0.83302
G1 X-0.81364 Y0.41996
G1 X0.00000 Y0.00000
G4 P0 ; pause before line 
G1 F2000 ; MEWing speed 
G1 X0.00000 Y30.00000
G4 P0 ; pause after line 
G1 F2000 ; loop speed
G1 X-0.81364 Y0.41996
G1 X-0.38006 Y0.83302
G1 X0.21608 Y0.88977
G1 X0.71980 Y0.56592
G1 X0.91563 Y0.00000
G1 X0.71980 Y-0.56592
G1 X0.21608 Y-0.88977
G1 X-0.38006 Y-0.83302
G1 X-0.81364 Y-0.41996
G1 X-0.00000 Y0.00000
G4 P0 ; pause before line 
G1 F2000 ; MEWing speed 
G1 X0.00000 Y-30.00000
G4 P0 ; pause after line 
G1 F2000 ; loop speed
G1 X-0.81364 Y-0.41996
G1 X-0.38006 Y-0.83302
G1 X0.21608 Y-0.88977
G1 X0.71980 Y-0.56592
G1 X0.91563 Y0.00000
G1 X0.71980 Y0.56592
G1 X0.21608 Y0.88977
G1 X-0.38006 Y0.83302
G1 X-0.81364 Y0.41996
G1 X0.00000 Y0.00000
G4 P0 ; pause before line 
G1 F2000 ; MEWing speed 
G1 X0.00000 Y30.00000
G4 P0 ; pause after line 
G1 F2000 ; loop speed
G1 X-0.81364 Y0.41996
G1 X-0.38006 Y0.83302
G1 X0.21608 Y0.88977
G1 X0.71980 Y0.56592
G1 X0.91563 Y0.00000
G1 X0.71980 Y-0.56592
G1 X0.21608 Y-0.88977
G1 X-0.38006 Y-0.83302
G1 X-0.81364 Y-0.41996
G1 X-0.00000 Y0.00000
G4 P0 ; pause before line 
G1 F2000 ; MEWing speed 
G1 X0.00000 Y-30.00000
G4 P0 ; pause after line 
G1 F2000 ; loop speed
G1 X-0.81364 Y-0.41996
G1 X-0.38006 Y-0.83302
G1 X0.21608 Y-0.88977
G1 X0.71980 Y-0.56592
G1 X0.91563 Y0.00000
G1 X0.71980 Y0.56592
G1 X0.21608 Y0.88977
G1 X-0.38006 Y0.83302
G1 X-0.81364 Y0.41996
G1 X-0.00000 Y0.00000
G4 P0 ; pause before line 
G1 F2000 ; MEWing speed 
G1 X0.00000 Y30.00000
G4 P0 ; pause after line 
G1 F2000 ; loop speed
G1 X-0.81364 Y0.41996
G1 X-0.38006 Y0.83302
G1 X0.21608 Y0.88977
G1 X0.71980 Y0.56592
G1 X0.91563 Y0.00000
G1 X0.71980 Y-0.56592
G1 X0.21608 Y-0.88977
G1 X-0.38006 Y-0.83302
G1 X-0.81364 Y-0.41996
G1 X0.00000 Y3.40000


; print finish - save home
G28
